CCSDS_OMM_VERS = 2.0
CREATION_DATE  = 
ORIGINATOR     = 

OBJECT_NAME    = STARLINK-36753
OBJECT_ID      = 2026-025B
CENTER_NAME    = EARTH
REF_FRAME      = TEME
TIME_SYSTEM    = UTC
MEAN_ELEMENT_THEORY = SGP/SGP4

EPOCH          = 2026-03-02T19:12:21.692448
MEAN_MOTION    = 15.75208568
ECCENTRICITY   = .0003743
INCLINATION    = 97.2850
RA_OF_ASC_NODE = 173.0102
ARG_OF_PERICENTER = 90.8193
MEAN_ANOMALY   = 269.3502

EPHEMERIS_TYPE = 0
CLASSIFICATION_TYPE = U
NORAD_CAT_ID   = 67694
ELEMENT_SET_NO = 999
REV_AT_EPOCH   = 486
BSTAR          = .17008E-2
MEAN_MOTION_DOT = .261739E-2
MEAN_MOTION_DDOT = 0

CCSDS_OMM_VERS = 2.0
CREATION_DATE  = 
ORIGINATOR     = 

OBJECT_NAME    = STARLINK-36750
OBJECT_ID      = 2026-025C
CENTER_NAME    = EARTH
REF_FRAME      = TEME
TIME_SYSTEM    = UTC
MEAN_ELEMENT_THEORY = SGP/SGP4

EPOCH          = 2026-03-02T18:42:49.267296
MEAN_MOTION    = 15.81369137
ECCENTRICITY   = .0001361
INCLINATION    = 97.2839
RA_OF_ASC_NODE = 173.0393
ARG_OF_PERICENTER = 108.8454
MEAN_ANOMALY   = 251.2962

EPHEMERIS_TYPE = 0
CLASSIFICATION_TYPE = U
NORAD_CAT_ID   = 67695
ELEMENT_SET_NO = 999
REV_AT_EPOCH   = 485
BSTAR          = .24089E-2
MEAN_MOTION_DOT = .501322E-2
MEAN_MOTION_DDOT = 0

CCSDS_OMM_VERS = 2.0
CREATION_DATE  = 
ORIGINATOR     = 

OBJECT_NAME    = STARLINK-36401
OBJECT_ID      = 2026-025D
CENTER_NAME    = EARTH
REF_FRAME      = TEME
TIME_SYSTEM    = UTC
MEAN_ELEMENT_THEORY = SGP/SGP4

EPOCH          = 2026-03-02T20:00:01.999008
MEAN_MOTION    = 15.75195901
ECCENTRICITY   = .0001172
INCLINATION    = 97.2854
RA_OF_ASC_NODE = 173.0787
ARG_OF_PERICENTER = 85.0549
MEAN_ANOMALY   = 180.7070

EPHEMERIS_TYPE = 0
CLASSIFICATION_TYPE = U
NORAD_CAT_ID   = 67696
ELEMENT_SET_NO = 999
REV_AT_EPOCH   = 475
BSTAR          = .12869E-3
MEAN_MOTION_DOT = .19113E-3
MEAN_MOTION_DDOT = 0

CCSDS_OMM_VERS = 2.0
CREATION_DATE  = 
ORIGINATOR     = 

OBJECT_NAME    = STARLINK-36704
OBJECT_ID      = 2026-025E
CENTER_NAME    = EARTH
REF_FRAME      = TEME
TIME_SYSTEM    = UTC
MEAN_ELEMENT_THEORY = SGP/SGP4

EPOCH          = 2026-03-02T19:09:18.603936
MEAN_MOTION    = 15.75350826
ECCENTRICITY   = .0001988
INCLINATION    = 97.2849
RA_OF_ASC_NODE = 173.0123
ARG_OF_PERICENTER = 40.8064
MEAN_ANOMALY   = 319.3349

EPHEMERIS_TYPE = 0
CLASSIFICATION_TYPE = U
NORAD_CAT_ID   = 67697
ELEMENT_SET_NO = 999
REV_AT_EPOCH   = 485
BSTAR          = .2689E-2
MEAN_MOTION_DOT = .424488E-2
MEAN_MOTION_DDOT = 0

CCSDS_OMM_VERS = 2.0
CREATION_DATE  = 
ORIGINATOR     = 

OBJECT_NAME    = STARLINK-36697
OBJECT_ID      = 2026-025F
CENTER_NAME    = EARTH
REF_FRAME      = TEME
TIME_SYSTEM    = UTC
MEAN_ELEMENT_THEORY = SGP/SGP4

EPOCH          = 2026-03-02T20:04:49.692000
MEAN_MOTION    = 15.80826232
ECCENTRICITY   = .0001085
INCLINATION    = 97.2847
RA_OF_ASC_NODE = 173.1140
ARG_OF_PERICENTER = 93.6456
MEAN_ANOMALY   = 266.4937

EPHEMERIS_TYPE = 0
CLASSIFICATION_TYPE = U
NORAD_CAT_ID   = 67698
ELEMENT_SET_NO = 999
REV_AT_EPOCH   = 486
BSTAR          = .18888E-2
MEAN_MOTION_DOT = .377975E-2
MEAN_MOTION_DDOT = 0

CCSDS_OMM_VERS = 2.0
CREATION_DATE  = 
ORIGINATOR     = 

OBJECT_NAME    = STARLINK-36716
OBJECT_ID      = 2026-025G
CENTER_NAME    = EARTH
REF_FRAME      = TEME
TIME_SYSTEM    = UTC
MEAN_ELEMENT_THEORY = SGP/SGP4

EPOCH          = 2026-03-02T20:02:20.006592
MEAN_MOTION    = 15.80913687
ECCENTRICITY   = .0001206
INCLINATION    = 97.2843
RA_OF_ASC_NODE = 173.1167
ARG_OF_PERICENTER = 116.8811
MEAN_ANOMALY   = 243.2581

EPHEMERIS_TYPE = 0
CLASSIFICATION_TYPE = U
NORAD_CAT_ID   = 67699
ELEMENT_SET_NO = 999
REV_AT_EPOCH   = 487
BSTAR          = .12978E-2
MEAN_MOTION_DOT = .257064E-2
MEAN_MOTION_DDOT = 0

CCSDS_OMM_VERS = 2.0
CREATION_DATE  = 
ORIGINATOR     = 

OBJECT_NAME    = STARLINK-36712
OBJECT_ID      = 2026-025H
CENTER_NAME    = EARTH
REF_FRAME      = TEME
TIME_SYSTEM    = UTC
MEAN_ELEMENT_THEORY = SGP/SGP4

EPOCH          = 2026-03-02T18:55:04.895904
MEAN_MOTION    = 15.75351899
ECCENTRICITY   = .0001836
INCLINATION    = 97.2851
RA_OF_ASC_NODE = 173.0261
ARG_OF_PERICENTER = 61.9458
MEAN_ANOMALY   = 298.1992

EPHEMERIS_TYPE = 0
CLASSIFICATION_TYPE = U
NORAD_CAT_ID   = 67700
ELEMENT_SET_NO = 999
REV_AT_EPOCH   = 485
BSTAR          = .26942E-2
MEAN_MOTION_DOT = .425369E-2
MEAN_MOTION_DDOT = 0

CCSDS_OMM_VERS = 2.0
CREATION_DATE  = 
ORIGINATOR     = 

OBJECT_NAME    = STARLINK-36713
OBJECT_ID      = 2026-025J
CENTER_NAME    = EARTH
REF_FRAME      = TEME
TIME_SYSTEM    = UTC
MEAN_ELEMENT_THEORY = SGP/SGP4

EPOCH          = 2026-03-02T18:57:36.918432
MEAN_MOTION    = 15.75245749
ECCENTRICITY   = .0001663
INCLINATION    = 97.2856
RA_OF_ASC_NODE = 173.0226
ARG_OF_PERICENTER = 34.6810
MEAN_ANOMALY   = 325.4563

EPHEMERIS_TYPE = 0
CLASSIFICATION_TYPE = U
NORAD_CAT_ID   = 67701
ELEMENT_SET_NO = 999
REV_AT_EPOCH   = 486
BSTAR          = .20161E-2
MEAN_MOTION_DOT = .312609E-2
MEAN_MOTION_DDOT = 0

CCSDS_OMM_VERS = 2.0
CREATION_DATE  = 
ORIGINATOR     = 

OBJECT_NAME    = STARLINK-36695
OBJECT_ID      = 2026-025K
CENTER_NAME    = EARTH
REF_FRAME      = TEME
TIME_SYSTEM    = UTC
MEAN_ELEMENT_THEORY = SGP/SGP4

EPOCH          = 2026-03-02T19:00:39.391776
MEAN_MOTION    = 15.75176112
ECCENTRICITY   = .0001126
INCLINATION    = 97.2860
RA_OF_ASC_NODE = 173.0187
ARG_OF_PERICENTER = 144.5661
MEAN_ANOMALY   = 215.5679

EPHEMERIS_TYPE = 0
CLASSIFICATION_TYPE = U
NORAD_CAT_ID   = 67702
ELEMENT_SET_NO = 999
REV_AT_EPOCH   = 485
BSTAR          = .17111E-2
MEAN_MOTION_DOT = .262946E-2
MEAN_MOTION_DDOT = 0

CCSDS_OMM_VERS = 2.0
CREATION_DATE  = 
ORIGINATOR     = 

OBJECT_NAME    = STARLINK-36630
OBJECT_ID      = 2026-025L
CENTER_NAME    = EARTH
REF_FRAME      = TEME
TIME_SYSTEM    = UTC
MEAN_ELEMENT_THEORY = SGP/SGP4

EPOCH          = 2026-03-02T18:22:14.836800
MEAN_MOTION    = 15.80859640
ECCENTRICITY   = .0000881
INCLINATION    = 97.2852
RA_OF_ASC_NODE = 173.0569
ARG_OF_PERICENTER = 48.6498
MEAN_ANOMALY   = 311.4846

EPHEMERIS_TYPE = 0
CLASSIFICATION_TYPE = U
NORAD_CAT_ID   = 67703
ELEMENT_SET_NO = 999
REV_AT_EPOCH   = 485
BSTAR          = .13879E-2
MEAN_MOTION_DOT = .274798E-2
MEAN_MOTION_DDOT = 0

CCSDS_OMM_VERS = 2.0
CREATION_DATE  = 
ORIGINATOR     = 

OBJECT_NAME    = STARLINK-36338
OBJECT_ID      = 2026-025M
CENTER_NAME    = EARTH
REF_FRAME      = TEME
TIME_SYSTEM    = UTC
MEAN_ELEMENT_THEORY = SGP/SGP4

EPOCH          = 2026-03-02T20:00:01.999008
MEAN_MOTION    = 15.75215651
ECCENTRICITY   = .0001363
INCLINATION    = 97.2851
RA_OF_ASC_NODE = 173.1151
ARG_OF_PERICENTER = 87.4541
MEAN_ANOMALY   = 268.2877

EPHEMERIS_TYPE = 0
CLASSIFICATION_TYPE = U
NORAD_CAT_ID   = 67704
ELEMENT_SET_NO = 999
REV_AT_EPOCH   = 480
BSTAR          = -.18815E-3
MEAN_MOTION_DOT = -.28132E-3
MEAN_MOTION_DDOT = 0

CCSDS_OMM_VERS = 2.0
CREATION_DATE  = 
ORIGINATOR     = 

OBJECT_NAME    = STARLINK-36316
OBJECT_ID      = 2026-025N
CENTER_NAME    = EARTH
REF_FRAME      = TEME
TIME_SYSTEM    = UTC
MEAN_ELEMENT_THEORY = SGP/SGP4

EPOCH          = 2026-03-02T20:15:22.099392
MEAN_MOTION    = 15.75224001
ECCENTRICITY   = .0000901
INCLINATION    = 97.2858
RA_OF_ASC_NODE = 173.1018
ARG_OF_PERICENTER = 122.6535
MEAN_ANOMALY   = 237.4817

EPHEMERIS_TYPE = 0
CLASSIFICATION_TYPE = U
NORAD_CAT_ID   = 67705
ELEMENT_SET_NO = 999
REV_AT_EPOCH   = 486
BSTAR          = .88799E-3
MEAN_MOTION_DOT = .134624E-2
MEAN_MOTION_DDOT = 0

CCSDS_OMM_VERS = 2.0
CREATION_DATE  = 
ORIGINATOR     = 

OBJECT_NAME    = STARLINK-36707
OBJECT_ID      = 2026-025P
CENTER_NAME    = EARTH
REF_FRAME      = TEME
TIME_SYSTEM    = UTC
MEAN_ELEMENT_THEORY = SGP/SGP4

EPOCH          = 2026-03-02T20:00:01.999008
MEAN_MOTION    = 15.75197452
ECCENTRICITY   = .0001415
INCLINATION    = 97.2848
RA_OF_ASC_NODE = 173.1374
ARG_OF_PERICENTER = 98.1554
MEAN_ANOMALY   = 313.6002

EPHEMERIS_TYPE = 0
CLASSIFICATION_TYPE = U
NORAD_CAT_ID   = 67706
ELEMENT_SET_NO = 999
REV_AT_EPOCH   = 459
BSTAR          = -.22E-3
MEAN_MOTION_DOT = -.32829E-3
MEAN_MOTION_DDOT = 0

CCSDS_OMM_VERS = 2.0
CREATION_DATE  = 
ORIGINATOR     = 

OBJECT_NAME    = STARLINK-36645
OBJECT_ID      = 2026-025Q
CENTER_NAME    = EARTH
REF_FRAME      = TEME
TIME_SYSTEM    = UTC
MEAN_ELEMENT_THEORY = SGP/SGP4

EPOCH          = 2026-03-02T18:49:29.502336
MEAN_MOTION    = 15.75289770
ECCENTRICITY   = .0002528
INCLINATION    = 97.2858
RA_OF_ASC_NODE = 173.0293
ARG_OF_PERICENTER = 33.6896
MEAN_ANOMALY   = 326.4529

EPHEMERIS_TYPE = 0
CLASSIFICATION_TYPE = U
NORAD_CAT_ID   = 67707
ELEMENT_SET_NO = 999
REV_AT_EPOCH   = 485
BSTAR          = .17596E-2
MEAN_MOTION_DOT = .272045E-2
MEAN_MOTION_DDOT = 0

CCSDS_OMM_VERS = 2.0
CREATION_DATE  = 
ORIGINATOR     = 

OBJECT_NAME    = STARLINK-36287
OBJECT_ID      = 2026-025R
CENTER_NAME    = EARTH
REF_FRAME      = TEME
TIME_SYSTEM    = UTC
MEAN_ELEMENT_THEORY = SGP/SGP4

EPOCH          = 2026-03-02T18:08:34.348704
MEAN_MOTION    = 15.80911821
ECCENTRICITY   = .0001685
INCLINATION    = 97.2856
RA_OF_ASC_NODE = 173.0676
ARG_OF_PERICENTER = 6.3995
MEAN_ANOMALY   = 353.7295

EPHEMERIS_TYPE = 0
CLASSIFICATION_TYPE = U
NORAD_CAT_ID   = 67708
ELEMENT_SET_NO = 999
REV_AT_EPOCH   = 486
BSTAR          = .2264E-2
MEAN_MOTION_DOT = .459153E-2
MEAN_MOTION_DDOT = 0

